{"type": "FeatureCollection", "properties": {"antes": "S1A_IW_GRDH_1SDV_20210823T122228_20210823T122253_039357_04A5F9_rtc", "despues": "S1D_IW_GRDH_1SDV_20260828T122141_20260828T122206_004326_007FA4_rtc", "umbral_abs_db": 6.5, "delta_abs_med_min_db": 5.5, "min_km2": 0.5, "max_km2": 20.0, "z_max_m": 5200.0, "slope_min_deg": 10.0, "radio_km": 50, "n": 11, "area_km2": 7.06}, "features": [{"type": "Feature", "properties": {"clase": "aoi_semicirculo", "nombre": "Semicirculo 50 km al norte de Rasuwagadhi", "radio_km": 50, "centro": "Rasuwagadhi"}, "geometry": {"type": "Polygon", "coordinates": [[[84.86980010706995, 28.315019260291052], [84.87626820126145, 28.35891671135307], [84.88757529642214, 28.402041302749083], [84.90361816606784, 28.44397683852983], [84.92424742603544, 28.48431808753898], [84.94926876923799, 28.522674735907415], [84.9784446607883, 28.55867521392324], [85.01149648466425, 28.591970357942667], [85.04810712743557, 28.622236868877366], [85.08792397875054, 28.649180530156375], [85.13056232241276, 28.67253914993466], [85.17560908609724, 28.69208519471606], [85.22262691220628, 28.707628084470183], [85.27115850720126, 28.719016122731496], [85.32073122211509, 28.726138039038705], [85.37086181299217, 28.72892412535328], [85.42106132684393, 28.727346952720584], [85.47084005645128, 28.721421659328602], [85.51971250606502, 28.71120580618862], [85.56720230979654, 28.696798801813127], [85.61284704526345, 28.678340902401484], [85.65620288683134, 28.65601179906475], [85.6968490455198, 28.630028808432698], [85.73439194622628, 28.60064468750532], [85.76846909725433, 28.5681450977603], [85.7987526120818, 28.53284574724738], [85.82495234872273, 28.495089242642578], [85.8468186377759, 28.45524168596828], [85.86414457616338, 28.413689052893353], [85.87676786950327, 28.370833391208617], [85.88457221190359, 28.327088879237454], [85.88748819759917, 28.28287778461127], [84.86822731170403, 28.270772071929873], [84.86980010706995, 28.315019260291052]]]}}, {"type": "Feature", "properties": {"clase": "deslizamiento_s1", "area_km2": 0.88, "lon": 85.0459, "lat": 28.41175, "delta_vv_db": -11.28, "delta_abs_med_db": 11.88, "sentido": "oscurece", "par": "2021-08-23 vs 2026-08-28", "orbita": 85, "fuente": "Sentinel-1 RTC VV (Planetary Computer)"}, "geometry": {"type": "Polygon", "coordinates": [[[85.03694828423055, 28.419662338923494], [85.03686288645213, 28.418758724785395], [85.03859596155216, 28.418873946000136], [85.03933686645793, 28.417440806238048], [85.04117196731045, 28.417557463425638], [85.04118027157081, 28.41710639089185], [85.04169048187184, 28.417113731579143], [85.04188128397502, 28.41783838366579], [85.04342188044465, 28.417319104889774], [85.04393043393058, 28.417416651883936], [85.0442216367965, 28.41823298237339], [85.04615549089823, 28.418531468817275], [85.04707388460794, 28.418544647730407], [85.04709541114482, 28.417371855103628], [85.04923334651258, 28.417673225156875], [85.04791506292146, 28.41720313418628], [85.04792333848394, 28.41675205980922], [85.04637945628774, 28.417451820658307], [85.04129559934353, 28.41638614301724], [85.0413055633182, 28.41584485583963], [85.04212189027808, 28.41585659879588], [85.04151462637812, 28.415577148397894], [85.04152790968386, 28.41485543197035], [85.04238903805339, 28.412431378483735], [85.04403656379327, 28.411642911368155], [85.04792224816387, 28.41124748686078], [85.04986094943794, 28.411275270100116], [85.0527080838303, 28.411857454795424], [85.05321002104482, 28.41231582718849], [85.05319021680414, 28.413398409758408], [85.05255982107806, 28.414382020283313], [85.05261563261963, 28.41690950403613], [85.05159025149548, 28.417165547928366], [85.05157703513973, 28.417887268451622], [85.0493304276774, 28.417945332261063], [85.04911476172944, 28.418573912048753], [85.04839548991409, 28.418834317648628], [85.04941593167626, 28.41884894386028], [85.0500381176891, 28.418316426112515], [85.05299078572223, 28.418719645188958], [85.05258756235574, 28.41844316104473], [85.05270941987317, 28.4173620394051], [85.05363110767155, 28.41719474326733], [85.05363770875599, 28.41683388253763], [85.0530254536571, 28.416825127275626], [85.05304526240037, 28.415742545356657], [85.05485087747243, 28.411888086288396], [85.05465339792516, 28.41152430922527], [85.0536330231889, 28.4115097256917], [85.05336981232625, 28.409159752497594], [85.0538799882591, 28.409167045654584], [85.05398697174628, 28.408897858136015], [85.05358378123628, 28.408621378267323], [85.05380434584555, 28.407722142305996], [85.04749481188337, 28.406729423090233], [85.04740436318298, 28.406096455031747], [85.04679382741766, 28.405997459814586], [85.04453255858041, 28.40686739047029], [85.04431689134142, 28.407495963326895], [85.04349896920574, 28.40757445143957], [85.04330485328074, 28.407030230476234], [85.04403565799934, 28.406138344407708], [85.04301699985766, 28.406033469109726], [85.04292160264883, 28.405671143629082], [85.04210203485773, 28.405839838726674], [85.04238987917721, 28.40683660160634], [85.04198009070198, 28.406920947931614], [85.04194690015653, 28.408725241437082], [85.04122934152748, 28.40889539729853], [85.04089500973241, 28.410424641338793], [85.03995176776382, 28.411764642060604], [85.03970781163193, 28.413926851622655], [85.04062450098277, 28.414030286586236], [85.04091234857714, 28.415027051872986], [85.04028515530663, 28.415830170269412], [85.03967291086694, 28.41582135526066], [85.03908560393879, 28.414459321170746], [85.0385754071573, 28.41445197135067], [85.03760880482007, 28.417054952606584], [85.03843012871195, 28.41679607508915], [85.03892204640626, 28.417795784249854], [85.03719398091981, 28.41740992515795], [85.03655675640405, 28.418754309516906], [85.03614858311396, 28.41874842142271], [85.03623230958569, 28.419742249917654], [85.03694828423055, 28.419662338923494]], [[85.05358378123628, 28.408621378267323], [85.05357553245554, 28.409072454705676], [85.0529633220138, 28.409063701346337], [85.05297157338505, 28.408612625071886], [85.05358378123628, 28.408621378267323]], [[85.05205491314983, 28.408509274914422], [85.05276915458626, 28.408519491481332], [85.05276090238951, 28.408970567707545], [85.05204665793086, 28.40896035094933], [85.05205491314983, 28.408509274914422]], [[85.04793383098159, 28.410615982168956], [85.04794210419423, 28.410164907350566], [85.05072020492483, 28.408941367041976], [85.05072846575649, 28.408490291362536], [85.05154474092335, 28.408501975075637], [85.05160383715808, 28.410849029658575], [85.04793383098159, 28.410615982168956]], [[85.04787150650878, 28.408449359878233], [85.0478880517782, 28.407547209955954], [85.04961931273071, 28.40775249760446], [85.04960112887159, 28.408744863507696], [85.04888357980884, 28.408915060325256], [85.04787150650878, 28.408449359878233]], [[85.04108247620603, 28.41132972351652], [85.04200412446076, 28.41116250432359], [85.04188050989345, 28.412333826906533], [85.04096051193001, 28.412410830164927], [85.04108247620603, 28.41132972351652]], [[85.0389536381225, 28.416081710823192], [85.03997404773067, 28.416096406488894], [85.03995909135233, 28.416908336559846], [85.03924479910424, 28.4168980500493], [85.0389536381225, 28.416081710823192]]]}}, {"type": "Feature", "properties": {"clase": "deslizamiento_s1", "area_km2": 0.76, "lon": 85.09692, "lat": 28.41539, "delta_vv_db": -11.34, "delta_abs_med_db": 10.99, "sentido": "oscurece", "par": "2021-08-23 vs 2026-08-28", "orbita": 85, "fuente": "Sentinel-1 RTC VV (Planetary Computer)"}, "geometry": {"type": "Polygon", "coordinates": [[[85.09992874284195, 28.419563392024703], [85.09993679877331, 28.419112303977506], [85.10065113148134, 28.419122272853464], [85.10158082809791, 28.41850356056145], [85.10239720447582, 28.418514943178366], [85.10248959768867, 28.41905767216765], [85.10309866646, 28.41924664121022], [85.1044236813685, 28.419355338978946], [85.10475232438506, 28.418096551587507], [85.10139927203718, 28.417237666270484], [85.10097981770649, 28.417863496633952], [85.1011694199141, 28.41867830278784], [85.09831532733263, 28.41845798119407], [85.09801886343637, 28.41791239897276], [85.09975365058054, 28.417936626105785], [85.09946201474571, 28.417120393858553], [85.09875253205695, 28.41683976664995], [85.09721378740444, 28.417269467901026], [85.09722185407176, 28.416818380414337], [85.09630990439327, 28.4164446706017], [85.0964216328519, 28.415904792751192], [85.09999479600361, 28.415864469093222], [85.10130688544685, 28.41669493674539], [85.10304326443519, 28.41662890323914], [85.1042565571506, 28.417277486227277], [85.1055815495199, 28.41738617163489], [85.10580812650167, 28.416125960339702], [85.10224460142072, 28.415625129683995], [85.10225264621715, 28.415174040768992], [85.10317908202991, 28.41473575078327], [85.10542564704737, 28.414676793124368], [85.10491864254247, 28.41448925591715], [85.10442931705145, 28.413309319805304], [85.10309633655169, 28.41365171486753], [85.09719079139681, 28.41284738302652], [85.0966999463553, 28.411757640864653], [85.09486806773825, 28.411461299489876], [85.09550452271462, 28.41011660281367], [85.09356579032519, 28.410089470295762], [85.09357225410821, 28.409728600695647], [85.09316410164503, 28.409722885158843], [85.09345728760519, 28.41044891106294], [85.09253893857934, 28.410436048313894], [85.08996530531346, 28.411663326737507], [85.09044960433083, 28.413113958651984], [85.09543510009242, 28.413995954090677], [85.09604412595803, 28.41418495285441], [85.09603605518495, 28.414636040206144], [85.09449248731995, 28.415336364007942], [85.09255527818344, 28.41521899525714], [85.09256336390224, 28.414767908859503], [85.09215519235954, 28.414762189373835], [85.0922362086088, 28.41593644371831], [85.0895782078798, 28.41616988876985], [85.08955229093112, 28.417613362315716], [85.08913924851797, 28.417878284471115], [85.09035732033372, 28.418256336589117], [85.09087726364751, 28.417722190388], [85.09068774243059, 28.416907373651334], [85.09181185402399, 28.416832895259446], [85.09177949450998, 28.41863723931929], [85.09646718793675, 28.41906383046687], [85.09778412480406, 28.419623679866255], [85.09992874284195, 28.419563392024703]], [[85.09980359558148, 28.415139879313994], [85.09725895834917, 28.414743377563447], [85.09726863707955, 28.414202072360556], [85.1004319624265, 28.41424624683635], [85.10042229976358, 28.414787553031747], [85.10093251678856, 28.414794671231835], [85.10064409932895, 28.413798005696925], [85.10156087225084, 28.41390103294672], [85.10194168702105, 28.415440426298467], [85.10020371695552, 28.415596664327694], [85.09980359558148, 28.415139879313994]], [[85.09506084387048, 28.41209567719549], [85.09628371646377, 28.412203021906443], [85.09627564737212, 28.4126541094524], [85.09545931884765, 28.41264269228609], [85.09506084387048, 28.41209567719549]], [[85.09315137149957, 28.41612974537487], [85.09540603537764, 28.415619867876018], [85.09487804833074, 28.41660512004185], [85.0934478053662, 28.416675336899885], [85.09315137149957, 28.41612974537487]], [[85.09292949677761, 28.417119276597802], [85.0934397227531, 28.41712642340395], [85.09343163995388, 28.417577509876015], [85.0929214118185, 28.417570362936065], [85.09292949677761, 28.417119276597802]], [[85.09211622855295, 28.411242285355513], [85.09262642611934, 28.4112494338595], [85.0926151080939, 28.41188095515673], [85.09210490750456, 28.411873806465344], [85.09211622855295, 28.411242285355513]]]}}, {"type": "Feature", "properties": {"clase": "deslizamiento_s1", "area_km2": 0.74, "lon": 84.918, "lat": 28.41694, "delta_vv_db": -5.63, "delta_abs_med_db": 10.31, "sentido": "oscurece", "par": "2021-08-23 vs 2026-08-28", "orbita": 85, "fuente": "Sentinel-1 RTC VV (Planetary Computer)"}, "geometry": {"type": "Polygon", "coordinates": [[[84.91631935224511, 28.424005191660267], [84.91613824537725, 28.42282937020691], [84.91574245971957, 28.4221916682956], [84.91471853335207, 28.4223564535253], [84.91454275127477, 28.42091000858366], [84.91545578781171, 28.421194698474576], [84.91577604108903, 28.420477726638538], [84.91628622798252, 28.420485537987048], [84.91558964134097, 28.419572526937095], [84.91670851007017, 28.419770125484828], [84.91673324056373, 28.41850721992438], [84.9184784352599, 28.417992510932123], [84.91797355553255, 28.417714085534758], [84.91798591241496, 28.417082632086625], [84.91952524666246, 28.416654994359607], [84.9196502095533, 28.415483853052812], [84.92332691762931, 28.415359522703326], [84.92586367602964, 28.41612007738434], [84.92608181002583, 28.415401521628443], [84.9267960423517, 28.41541240115096], [84.9266729156983, 28.416493345007463], [84.92615746973259, 28.416756197915586], [84.92684534497023, 28.4181201996746], [84.92721120444791, 28.41505778356811], [84.92802571135728, 28.41516041833787], [84.92876628183774, 28.41381816321001], [84.92619790829058, 28.414681410974243], [84.92631752055541, 28.413780883747144], [84.92981292453477, 28.412480557803413], [84.92974072720963, 28.410945463695537], [84.93014884378248, 28.41095166917038], [84.93079609659732, 28.409156805773765], [84.92978108615674, 28.408870670270748], [84.92721811233334, 28.409463319640963], [84.92669567348624, 28.410087009657218], [84.92698770088278, 28.410813336547754], [84.9287485263978, 28.409486611109568], [84.9299711044273, 28.409595440342475], [84.92995882247808, 28.41022689929222], [84.92800798951114, 28.410828868501575], [84.92747852067548, 28.41181339435195], [84.92553995569838, 28.411783868641862], [84.92544847711817, 28.41124106504424], [84.92617498623308, 28.410620489099365], [84.92505091350735, 28.410693596670995], [84.92505794858198, 28.410332764140943], [84.92341493688, 28.410849122616344], [84.92056871400321, 28.410264270289037], [84.9208589367241, 28.411080816032623], [84.91983336059364, 28.41133585387125], [84.9228995119765, 28.4111119643945], [84.92289070868344, 28.41156300438382], [84.9208465999704, 28.411712271192147], [84.91889393224811, 28.412404313257706], [84.91805122074854, 28.413744948519902], [84.91447306698589, 28.414051117027384], [84.91415105907393, 28.414858294432737], [84.9134368362137, 28.41484734878843], [84.9135087964899, 28.41638243852716], [84.91298978299143, 28.4168256545988], [84.91207325046798, 28.41672136491654], [84.91245660548894, 28.4179905269557], [84.91204846652329, 28.417984267052475], [84.9120378443436, 28.418525510747216], [84.91112129864521, 28.4184212139542], [84.91111067155735, 28.41896245729354], [84.91151881402945, 28.418968720204102], [84.91107701717543, 28.420676394226742], [84.91190039799191, 28.420328090740064], [84.91254802066189, 28.418533335611073], [84.91305819718393, 28.418541158565553], [84.9133519181402, 28.419177302873], [84.91333422451237, 28.420079376264564], [84.91261819697766, 28.420158631791576], [84.91260757673342, 28.420699875510483], [84.91167861557668, 28.421227032158352], [84.91165205128783, 28.422580140343594], [84.91001942664325, 28.4225550800609], [84.90911171509117, 28.42199973269891], [84.90912058061043, 28.421548697363747], [84.91105576025929, 28.42175888046962], [84.91066532484109, 28.42085054398845], [84.90902918153506, 28.421005887414044], [84.90862812570036, 28.420638788426235], [84.90688462247232, 28.421063159119633], [84.90618456541166, 28.420330517885578], [84.90617036129377, 28.42105217317886], [84.90474184013863, 28.421030190069203], [84.90461848026928, 28.422111101000333], [84.9054276810363, 28.42248449317458], [84.91041340594502, 28.423283003981517], [84.91327759942818, 28.422966010246128], [84.91336902139989, 28.423508818424562], [84.91631935224511, 28.424005191660267]], [[84.92819448576286, 28.411734057001333], [84.9289086944406, 28.411744924163962], [84.9286888325578, 28.412553694515722], [84.92787258801434, 28.412541272955565], [84.92819448576286, 28.411734057001333]], [[84.91780302830952, 28.41599701903177], [84.91535953610477, 28.415688917308238], [84.91559187561606, 28.414248721748642], [84.91978045935994, 28.414042087954638], [84.91929676022012, 28.412681174853137], [84.92022384661668, 28.41224416750194], [84.92257405512052, 28.41209958182859], [84.92328122210915, 28.412471310622408], [84.92390748219542, 28.41175898350637], [84.92523034932367, 28.41195962041735], [84.92470436764594, 28.4127637175051], [84.92572643185021, 28.412689059395948], [84.92569302157395, 28.414403013863506], [84.92506147881998, 28.415385972962195], [84.92414494132012, 28.415281764616566], [84.92415902017093, 28.414560100437043], [84.92261973193536, 28.414987793280897], [84.9221254233304, 28.414168135842942], [84.9216152648194, 28.41416034795195], [84.92149561237069, 28.415060868892322], [84.91903977698864, 28.415384288110456], [84.91850843721464, 28.416458980588832], [84.91779420162975, 28.41644805723483], [84.91780302830952, 28.41599701903177]], [[84.92310533014178, 28.411024869537517], [84.92361547411113, 28.41103265106325], [84.9236066738803, 28.411483691263015], [84.9230965277526, 28.41147590959159], [84.92310533014178, 28.411024869537517]], [[84.9147945669341, 28.41847753489131], [84.91337138018984, 28.418185021992496], [84.91390278033161, 28.417110353011335], [84.91451498452734, 28.417119733808367], [84.91411392241984, 28.41675265057299], [84.91454681053386, 28.415495999680807], [84.91526103825211, 28.41550693973184], [84.91525220098163, 28.41595797723644], [84.91759366543464, 28.41626452033526], [84.91662767203354, 28.41868607332552], [84.91519033439091, 28.41911523886108], [84.9147945669341, 28.41847753489131]], [[84.91309829720107, 28.421699979138225], [84.91381256589183, 28.421710928966778], [84.91380372019856, 28.42216196564361], [84.91308944848458, 28.4221510156101], [84.91309829720107, 28.421699979138225]], [[84.90646937195972, 28.4214177095835], [84.90748619996376, 28.42161381453507], [84.90747732749355, 28.422064849394125], [84.90666102104319, 28.422052296877165], [84.90646937195972, 28.4214177095835]]]}}, {"type": "Feature", "properties": {"clase": "deslizamiento_s1", "area_km2": 0.69, "lon": 85.0522, "lat": 28.40118, "delta_vv_db": -13.01, "delta_abs_med_db": 13.31, "sentido": "oscurece", "par": "2021-08-23 vs 2026-08-28", "orbita": 85, "fuente": "Sentinel-1 RTC VV (Planetary Computer)"}, "geometry": {"type": "Polygon", "coordinates": [[[85.04556944712088, 28.405979891118523], [85.04640556783326, 28.40490902545263], [85.0486634734968, 28.404219490809016], [85.04947971492176, 28.404231185292893], [85.04946814435128, 28.404862691159504], [85.05109568354554, 28.405156711695206], [85.05160583960884, 28.405164012431413], [85.0517227303355, 28.404353535175254], [85.052948746411, 28.404280832333647], [85.0551818817987, 28.40494441786522], [85.0552707284435, 28.405667598500376], [85.0558895104888, 28.40531547871125], [85.05690488712459, 28.405600688975152], [85.05816053788658, 28.403904059420388], [85.05818028377344, 28.4028214721405], [85.05604590451993, 28.402339824419727], [85.05595375942912, 28.401797074855118], [85.05514247732937, 28.401514773675142], [85.05525933555656, 28.400704291453987], [85.05576947155829, 28.400711575554702], [85.05548151308969, 28.399714834782777], [85.05620557835077, 28.399183737183794], [85.05592585409977, 28.39773591933826], [85.05521497883892, 28.397545291809987], [85.05522321671712, 28.397094214168128], [85.05594397070331, 28.396743548091923], [85.0548348961676, 28.396005799872015], [85.05318439308381, 28.3969748460983], [85.05216415863003, 28.396960258379988], [85.05219715987023, 28.395155950743156], [85.05067674304797, 28.394592764595263], [85.05068499912645, 28.39414168797745], [85.04986883442339, 28.3941300045044], [85.05008774067487, 28.3933209881331], [85.05090389928726, 28.39333266999114], [85.05040866227303, 28.392513431453093], [85.04958920614416, 28.392682177513116], [85.04928975778668, 28.392316933434223], [85.04906919559903, 28.393216163690536], [85.04966644537944, 28.39403686760023], [85.04873008001037, 28.395016083917177], [85.04881061397033, 28.39619034320482], [85.05014351382279, 28.39584847683647], [85.04943431556678, 28.395567604949655], [85.04944918644335, 28.39475566773251], [85.05037233142275, 28.394498168478634], [85.05055820841176, 28.39549345748557], [85.05177752070061, 28.395781621534137], [85.0507275748458, 28.397390899197188], [85.05246857900346, 28.39705485088171], [85.05235170542579, 28.397865330269532], [85.05152560685657, 28.398394947300222], [85.05140872403604, 28.399205425302974], [85.05006752423053, 28.39999837813003], [85.04955739337761, 28.399991072845207], [85.04896176694541, 28.399080152362238], [85.0488332914158, 28.40052213311895], [85.04832315843034, 28.40051482308951], [85.04798896142186, 28.40204409264969], [85.0465407065132, 28.403106189813975], [85.04590866228732, 28.404179985849538], [85.04529648277332, 28.40417119941083], [85.04496388477556, 28.405610243191], [85.04455575981852, 28.40560438277077], [85.04556944712088, 28.405979891118523]], [[85.05239432640596, 28.40111454186787], [85.05240257745461, 28.400663465219957], [85.05485287500717, 28.40060824733473], [85.05484133803999, 28.40123975555943], [85.05239432640596, 28.40111454186787]], [[85.05073215876614, 28.40271505937361], [85.0509494287952, 28.401996258357762], [85.05247820178366, 28.402108369578166], [85.05246499973225, 28.402830092078858], [85.05073215876614, 28.40271505937361]], [[85.05026662074057, 28.400271945384613], [85.0509808061733, 28.400282168623256], [85.05097089782423, 28.40082346016842], [85.05025670876637, 28.400813236700024], [85.05026662074057, 28.400271945384613]], [[85.04932193790567, 28.40170223834113], [85.0493351606339, 28.400980517073723], [85.05045745903784, 28.40099658852278], [85.05044259197965, 28.401808525484622], [85.04932193790567, 28.40170223834113]]]}}, {"type": "Feature", "properties": {"clase": "deslizamiento_s1", "area_km2": 0.66, "lon": 85.04392, "lat": 28.42283, "delta_vv_db": -9.57, "delta_abs_med_db": 10.89, "sentido": "oscurece", "par": "2021-08-23 vs 2026-08-28", "orbita": 85, "fuente": "Sentinel-1 RTC VV (Planetary Computer)"}, "geometry": {"type": "Polygon", "coordinates": [[[85.04672900017736, 28.426209972818803], [85.04674225399839, 28.42548825526612], [85.04715045573107, 28.425494112874055], [85.0473661497064, 28.424865538063244], [85.04818254882025, 28.42487724808141], [85.04850028464908, 28.42425013443621], [85.04901053143267, 28.424257449376025], [85.04899894842195, 28.424888953208836], [85.04950919842067, 28.424896266429897], [85.04951912414586, 28.42435497726994], [85.05023347083439, 28.424365212339964], [85.05031733062442, 28.42535903809346], [85.05082593004992, 28.425456561404374], [85.05206375555439, 28.42475237389002], [85.05157664065706, 28.423482060595976], [85.05269752627606, 28.42358834022886], [85.0533263297715, 28.422694948024738], [85.05209184074431, 28.423218718781115], [85.05220710442325, 28.422498458958344], [85.0515948172592, 28.422489695670887], [85.05160307904674, 28.422038620653574], [85.05211331617086, 28.422045923447445], [85.05211992373579, 28.421685063301112], [85.05160968833981, 28.421677760616603], [85.05183360755046, 28.42059810155422], [85.0515175555132, 28.421135009789317], [85.05049709055233, 28.42112039825385], [85.05050700969232, 28.420579108474694], [85.05132337745283, 28.420590798051716], [85.05133163973747, 28.420139722981617], [85.04980095706621, 28.42011780142382], [85.05018764425317, 28.421296443186566], [85.04957536474225, 28.421287671156794], [85.04966252572622, 28.42210106751765], [85.04915228908357, 28.422093755527325], [85.04803307986566, 28.421897232794436], [85.04804963303573, 28.420995084566485], [85.04183977434997, 28.420093746718486], [85.04175267420138, 28.41928034814823], [85.04339035905791, 28.419033182595264], [85.04003122007128, 28.41853366568446], [85.04012661607611, 28.418895992630414], [85.04125075805045, 28.418821934744052], [85.04123913161989, 28.41945343614995], [85.04082264795105, 28.419898634243083], [85.03878840772437, 28.419508387016712], [85.03866806882506, 28.420499274442342], [85.03968852061062, 28.42051397433245], [85.03967688409075, 28.421145474989952], [85.0386364666963, 28.42221334646334], [85.03872354386523, 28.423026745640403], [85.03831535365755, 28.423020863234097], [85.03892264952336, 28.4233003293082], [85.03859654426563, 28.424378489405594], [85.03716952576825, 28.424267679211155], [85.03759436392485, 28.42337142302318], [85.03722612211278, 28.42120039573553], [85.0368950132032, 28.422549194170845], [85.03730320125362, 28.42255508074593], [85.03729487867466, 28.423006151869618], [85.0365755511887, 28.42326649191117], [85.0368650448006, 28.424173049669044], [85.03614737393418, 28.42434317281234], [85.03615403627481, 28.423982316235556], [85.03503650467772, 28.4236954727324], [85.03514855099151, 28.423155661341763], [85.03627107364481, 28.423171861194408], [85.03587287790373, 28.422624686534707], [85.03581413911853, 28.420277645751828], [85.03508816240809, 28.420898835325517], [85.03505983488843, 28.422432475346803], [85.03362951321786, 28.422502057559033], [85.0336028305186, 28.423945481865566], [85.03452126403825, 28.423958747740475], [85.03490945707942, 28.425047210572778], [85.03624775709193, 28.424434859362314], [85.03581623919423, 28.425691966875085], [85.03622443903588, 28.42569785727826], [85.0367546708226, 28.424622648605318], [85.0383774729649, 28.425187476350644], [85.03869360277042, 28.42465060280738], [85.03971741956262, 28.42448487580146], [85.03978954240317, 28.426110203422454], [85.04042012889673, 28.425126662907832], [85.04234745137178, 28.425786066601837], [85.04521978845987, 28.425015205245792], [85.0456263303929, 28.42511128197384], [85.04590927663274, 28.426378682871416], [85.04672900017736, 28.426209972818803]], [[85.04760667854579, 28.422883741169954], [85.04913739899607, 28.4229056893418], [85.04902542332641, 28.423445515784223], [85.04800162674249, 28.42361131407369], [85.04760667854579, 28.422883741169954]], [[85.04364506364551, 28.42183423515431], [85.04355463083628, 28.42120126635527], [85.0445767505763, 28.42112571531673], [85.04548687843901, 28.421589979407493], [85.04547859088171, 28.422041052807273], [85.04364506364551, 28.42183423515431]], [[85.041463881732, 28.42387834987753], [85.04228027038955, 28.423890094913467], [85.04228857214238, 28.423439022499625], [85.04320534652082, 28.423542444106985], [85.04348328232238, 28.42508049228036], [85.04164306466765, 28.425234503149134], [85.041463881732, 28.42387834987753]], [[85.03992484243703, 28.424307386503244], [85.04014888631072, 28.423227753183532], [85.04066244902481, 28.423054670374697], [85.0405836653439, 28.421790199646274], [85.04323355796012, 28.422008796840938], [85.04322526070722, 28.422459869604786], [85.04137512211871, 28.423155165922335], [85.04104073461714, 28.424684405195936], [85.03992484243703, 28.424307386503244]], [[85.03989925963994, 28.420156055802792], [85.04051152909703, 28.4201648710207], [85.04049823596104, 28.42088658644588], [85.03998800793838, 28.42087924040194], [85.03989925963994, 28.420156055802792]], [[85.03402769657822, 28.42304923820033], [85.03463998052182, 28.423058080639702], [85.03462497910766, 28.423870007279817], [85.03411473858031, 28.423862638523083], [85.03402769657822, 28.42304923820033]]]}}, {"type": "Feature", "properties": {"clase": "deslizamiento_s1", "area_km2": 0.65, "lon": 85.47971, "lat": 28.51088, "delta_vv_db": -2.98, "delta_abs_med_db": 11.41, "sentido": "oscurece", "par": "2021-08-23 vs 2026-08-28", "orbita": 85, "fuente": "Sentinel-1 RTC VV (Planetary Computer)"}, "geometry": {"type": "Polygon", "coordinates": [[[85.48144479903273, 28.51631810529573], [85.4813555679778, 28.515414619981716], [85.47982575061762, 28.515217012012354], [85.47983481048526, 28.514585372088863], [85.48146677864035, 28.514784121612195], [85.48147582856731, 28.51415248116668], [85.48198662479429, 28.514158189789523], [85.48228147318439, 28.514973723482168], [85.48484192653017, 28.514551060580256], [85.48503592743387, 28.5152752151705], [85.48555446633533, 28.514739503537538], [85.48546391136199, 28.51392625396514], [85.48649581188639, 28.513215762656223], [85.48661858435156, 28.51177314727758], [85.4877461757754, 28.51151495628439], [85.48766976629749, 28.50970912595279], [85.48808353514141, 28.50935273496598], [85.4868512365334, 28.509790261348716], [85.48684350832504, 28.510331669145813], [85.48572108385376, 28.510228914758226], [85.48543008765435, 28.50914268372736], [85.48686154047931, 28.509068384215787], [85.48604559263497, 28.508969045687444], [85.48585546053829, 28.507974188215137], [85.48553610953583, 28.508873118674252], [85.48502533792937, 28.50886742435687], [85.48433863934099, 28.506874288845676], [85.48607780724646, 28.50671317994978], [85.486067498974, 28.507435057070982], [85.48709289207, 28.50717573139332], [85.48770066017599, 28.507543493467427], [85.48779251645105, 28.508266508034485], [85.48851531265638, 28.507733056450355], [85.48973729725486, 28.508017391960884], [85.49065796556832, 28.507937373376087], [85.4906631042346, 28.507576434085994], [85.48964028571216, 28.507655317324602], [85.48914366424381, 28.50665705621669], [85.4879152623145, 28.50682388958292], [85.48639585812383, 28.505904482189795], [85.48546747171847, 28.50652588021201], [85.48445111080385, 28.506153551669655], [85.48423519690142, 28.50696338387384], [85.48310506516813, 28.5074020164263], [85.48401411809206, 28.508134153686257], [85.48468533869934, 28.51121010497642], [85.48642457776982, 28.511048994420687], [85.48631340141273, 28.51167949845336], [85.48497762157724, 28.512206102684004], [85.48498278049344, 28.51184516456913], [85.48416423288079, 28.51192628304285], [85.48417197528309, 28.511384876044886], [85.48315040866487, 28.511373474321346], [85.48385259850618, 28.512283801177514], [85.48271853244064, 28.512993131267528], [85.47985681180613, 28.51305138916194], [85.47670417865864, 28.512023340459873], [85.47671714608663, 28.51112099858027], [85.4759050871958, 28.510750896409593], [85.47624138654824, 28.508678947582585], [85.47553020349581, 28.508400223607968], [85.47578121294565, 28.50515408418984], [85.47527046156829, 28.505148353890966], [85.47526267572874, 28.505689759144538], [85.4744454696665, 28.505680586470486], [85.47425804854885, 28.50450524831867], [85.4733361039825, 28.504675390588098], [85.47334649772975, 28.503953517447982], [85.47406543673478, 28.503690846606336], [85.472738802544, 28.503585693646965], [85.47324564799311, 28.50386213561197], [85.47269980910302, 28.506292716886968], [85.47392432558486, 28.506396724210813], [85.47391783133631, 28.506847894892278], [85.47329712402245, 28.507382414149276], [85.47228210251367, 28.506919761843655], [85.47186439086268, 28.507546805270728], [85.47204138437586, 28.50944401760442], [85.47112199641674, 28.50943367496832], [85.47131589494036, 28.510157845745233], [85.47274736413317, 28.510083695895826], [85.4731663810717, 28.509366416094483], [85.47287941626594, 28.508009460816712], [85.47461861313046, 28.507848500045572], [85.4748138316167, 28.508482432648275], [85.47399530531564, 28.50856349056988], [85.47448010250295, 28.51037390873822], [85.47314168683015, 28.51108086316123], [85.4730174328042, 28.51261369355144], [85.47444114251873, 28.51308093147473], [85.47422383720965, 28.51398097756509], [85.47555449678566, 28.513815418572648], [85.47523633772207, 28.514624085978955], [85.47584929415925, 28.51463096434551], [85.47585967509491, 28.513909091416593], [85.47790155500952, 28.51402223286771], [85.47798946006962, 28.515015953659688], [85.47757693194009, 28.515282077299744], [85.47797520547012, 28.51600852973952], [85.4797106463993, 28.516118211376646], [85.47971582408806, 28.515757274352236], [85.48043094908836, 28.515765275559843], [85.48083183124331, 28.516311251800534], [85.48144479903273, 28.51631810529573]], [[85.48694695209386, 28.510242572215386], [85.48755988653399, 28.510249396799388], [85.48755344926775, 28.51070057008424], [85.48694051222127, 28.510693745372723], [85.48694695209386, 28.510242572215386]], [[85.48322932337635, 28.51299883500748], [85.48384227269528, 28.513005676962333], [85.48382807408471, 28.513998256035585], [85.4830069261687, 28.514259835695036], [85.48322932337635, 28.51299883500748]], [[85.47901494422354, 28.514756692791494], [85.47952574277755, 28.514762410775482], [85.47951927011027, 28.515213582079056], [85.47900846938386, 28.515207863988238], [85.47901494422354, 28.514756692791494]], [[85.47455498816304, 28.51226997186119], [85.4745653768927, 28.511548099117217], [85.47619469117696, 28.51192737821008], [85.47618690786302, 28.512468783156777], [85.47455498816304, 28.51226997186119]], [[85.47501554248429, 28.508665194242006], [85.47593362820186, 28.508765744476676], [85.47592324998848, 28.509487617976998], [85.47500256189923, 28.50956753573187], [85.47501554248429, 28.508665194242006]]]}}, {"type": "Feature", "properties": {"clase": "deslizamiento_s1", "area_km2": 0.55, "lon": 85.00351, "lat": 28.44023, "delta_vv_db": -7.84, "delta_abs_med_db": 10.9, "sentido": "oscurece", "par": "2021-08-23 vs 2026-08-28", "orbita": 85, "fuente": "Sentinel-1 RTC VV (Planetary Computer)"}, "geometry": {"type": "Polygon", "coordinates": [[[85.00243588119073, 28.447494682532625], [85.00286280614452, 28.446508344968915], [85.00378480659131, 28.446341403787297], [85.00390551342494, 28.445350568467703], [85.0048139532935, 28.445905316793894], [85.00553519771091, 28.445554944901705], [85.00554535585745, 28.445013671749305], [85.00636188902075, 28.445025640256013], [85.00616960286659, 28.444391162949955], [85.00483935768396, 28.444552134491243], [85.00484782542429, 28.444101073659244], [85.0068992915288, 28.44358972162316], [85.00632920401735, 28.441325441737153], [85.00694158289332, 28.44133441398748], [85.0065468652543, 28.440606734358635], [85.00736336507431, 28.440618695165877], [85.00747557382192, 28.440078915740607], [85.00655870794947, 28.439975248160806], [85.00646679720904, 28.439432478854464], [85.0064752562421, 28.438981417235247], [85.00688349983231, 28.438987398153515], [85.00649555712697, 28.437898869217673], [85.00685924095932, 28.43483613385804], [85.00571969362777, 28.43572180873141], [85.004903232222, 28.435709839944494], [85.00429935344182, 28.435249798876114], [85.00441495662903, 28.43452959753286], [85.00594411280241, 28.43464225199239], [85.00605970400669, 28.433922048597953], [85.00576030414642, 28.433556712471937], [85.00391991688224, 28.433710202755798], [85.00301835943837, 28.432794604129846], [85.00230397651994, 28.432784118516686], [85.00228702724692, 28.433686240246498], [85.00125120944575, 28.434483162683033], [85.00227177223398, 28.434498149693134], [85.00235857368877, 28.435311557366415], [85.00126168031534, 28.439356113489175], [84.99906745770453, 28.442030968054535], [84.999058966173, 28.442482027429772], [84.99956928516735, 28.442489532033477], [85.00060859058358, 28.4415122039114], [85.00213783999129, 28.441624905910754], [85.00225855390525, 28.440634071910573], [85.00276886502957, 28.440641564073275], [85.00233518432138, 28.441988751528477], [85.00304793417543, 28.4420894521723], [85.0030394595088, 28.44254051264178], [85.00262442197787, 28.442895367773808], [85.00109685011489, 28.442692458340364], [85.00148983990353, 28.443510364087437], [85.00241690217452, 28.443072794805996], [85.0026023820283, 28.44406812448507], [84.99923931884085, 28.4437479957371], [84.9992529046893, 28.443026300775795], [84.99862862772402, 28.44364877630308], [84.99862183256761, 28.444009623623124], [84.99913215875728, 28.444017130233632], [84.99859125281523, 28.445633436307983], [84.99940948551777, 28.44555523492625], [84.9994349583237, 28.444202057024455], [85.00166852643113, 28.4448665425202], [85.00192553727646, 28.44748718747418], [85.00243588119073, 28.447494682532625]], [[85.00391018478636, 28.43966570623633], [85.00463477492572, 28.439134912414865], [85.00635627623845, 28.439882044964804], [85.0057252882996, 28.44086540544616], [85.00388646786318, 28.44092867658466], [85.00391018478636, 28.43966570623633]], [[85.0033215393115, 28.438393750697742], [85.00393390018097, 28.438402735635357], [85.00396100161745, 28.436959340353482], [85.00610762172565, 28.436810339410258], [85.0061927615196, 28.43771395827361], [85.00556009373497, 28.438787531140548], [85.00320931200872, 28.438933525850818], [85.0033215393115, 28.438393750697742]], [[85.00365353858291, 28.442459287918833], [85.00569312832764, 28.442579438169126], [85.00568297196259, 28.443120711563928], [85.00496851851412, 28.44311023646411], [85.00475592128358, 28.443558303765123], [85.00353113982978, 28.443540335562336], [85.00365353858291, 28.442459287918833]], [[85.00185878418239, 28.440177016535735], [85.00218022888097, 28.43936960418037], [85.00269053391287, 28.439377096332844], [85.00278242516718, 28.439919867224607], [85.00359891783724, 28.43993185035025], [85.00359044626886, 28.44038291111455], [85.00185878418239, 28.440177016535735]], [[85.00200493152121, 28.43783300133799], [85.0033401774704, 28.43740141684676], [85.00352904805061, 28.438216321635398], [85.00281462849252, 28.438205836878392], [85.00290313014621, 28.438929032019626], [85.0023928271981, 28.438921540771886], [85.00200493152121, 28.43783300133799]], [[85.00267393008137, 28.445693439703817], [85.00318426561824, 28.445700931524737], [85.00317579025597, 28.446151991792448], [85.00266545255651, 28.44614449983137], [85.00267393008137, 28.445693439703817]]]}}, {"type": "Feature", "properties": {"clase": "deslizamiento_s1", "area_km2": 0.55, "lon": 85.45905, "lat": 28.44517, "delta_vv_db": -4.95, "delta_abs_med_db": 10.19, "sentido": "oscurece", "par": "2021-08-23 vs 2026-08-28", "orbita": 85, "fuente": "Sentinel-1 RTC VV (Planetary Computer)"}, "geometry": {"type": "Polygon", "coordinates": [[[85.46065341777224, 28.449300048446393], [85.46278960051242, 28.44986569666348], [85.46279873702164, 28.449234055700373], [85.46331313077314, 28.448969119178116], [85.46301336877977, 28.448514487131906], [85.46229870250627, 28.448506411666514], [85.46221227490864, 28.447422444690723], [85.46159709808357, 28.447595988528686], [85.46138245900754, 28.448315554656556], [85.4602581077998, 28.448393083908822], [85.46037458180024, 28.447401661539455], [85.45976332553325, 28.447304493987144], [85.45976986378903, 28.44685332234977], [85.46038373172142, 28.446770021065497], [85.46080386600846, 28.445962532139283], [85.46355515210665, 28.44635462543443], [85.46374499161229, 28.4473495105454], [85.46455653032534, 28.44771966841933], [85.46578296749938, 28.44764325452765], [85.4661009716184, 28.44683459661847], [85.46722790699519, 28.446576548948254], [85.4673052765801, 28.448292157263882], [85.4676323783582, 28.446851852880165], [85.46835093633999, 28.44658919581995], [85.46836393942368, 28.445686848778024], [85.46682604097879, 28.446120774606854], [85.46204203460276, 28.445074041380526], [85.46204856258174, 28.444622869111196], [85.46317548241693, 28.444364854409045], [85.46195169378663, 28.444260777302407], [85.46196605549918, 28.443268198192108], [85.46349740789582, 28.44328549900489], [85.46338357816495, 28.444096456889497], [85.46430239721053, 28.44410683014954], [85.46451309654545, 28.443657961620467], [85.46584027499789, 28.443672932003114], [85.46626946847348, 28.442233781150584], [85.4643336828397, 28.44194120036207], [85.46452222045559, 28.443026319569423], [85.4600420306376, 28.44216344634595], [85.46033653529386, 28.442979021798383], [85.46134698436087, 28.44371244525729], [85.46142817746365, 28.4451573505987], [85.46071353429113, 28.445149267678804], [85.4578654376925, 28.444395024276538], [85.45787198321013, 28.44394385284995], [85.4589989041877, 28.44368587283914], [85.4575709488822, 28.443579444220912], [85.45698722287631, 28.44158734532256], [85.45555536595108, 28.44175159939006], [85.45617837929045, 28.44103667629682], [85.4552609014351, 28.440936015001043], [85.45525303448487, 28.44147742028102], [85.45423215406495, 28.441465827150243], [85.45413925080929, 28.44083302825269], [85.45495726159174, 28.440752069532802], [85.45496250709495, 28.44039113269647], [85.45343120254526, 28.440373737468], [85.45332123902243, 28.440913982004155], [85.45270871450327, 28.44090701847613], [85.45251636076468, 28.440092589738416], [85.45169966807383, 28.440083299837397], [85.4516904691165, 28.440714938341255], [85.44913829180625, 28.440685875072884], [85.44905068492045, 28.439692137972514], [85.449965512976, 28.439973308533315], [85.45028097922251, 28.439345158562077], [85.44661248679252, 28.438852086728367], [85.44639644945084, 28.439661860693803], [85.4487444267724, 28.439688647080384], [85.44873521041268, 28.440320284735872], [85.44781116110173, 28.440670743271443], [85.44749304070628, 28.441479354431742], [85.44852050240111, 28.441039828492244], [85.45096402596793, 28.441518911730885], [85.4509719147692, 28.44097750755306], [85.45168652661545, 28.440985640538393], [85.4535188507756, 28.44136747326881], [85.45361175062477, 28.44200027241662], [85.45534725591189, 28.442019984434108], [85.45554487827879, 28.442473473100605], [85.45717175566688, 28.44294317465647], [85.45725551106852, 28.44420761190846], [85.45684714795641, 28.444202981176893], [85.45652253184518, 28.445462786398995], [85.4559099801936, 28.44545583626367], [85.45580133358408, 28.445905848526664], [85.45641388779705, 28.4459127992513], [85.4564020936529, 28.44672490700271], [85.45671361404187, 28.446367444630834], [85.4575277379047, 28.446557174794304], [85.45720574092552, 28.447636512834872], [85.45568350832863, 28.446987499753103], [85.45518746811301, 28.445989129194036], [85.45466782265571, 28.446614971346648], [85.45558403733273, 28.446805872598965], [85.45557748132535, 28.447257043348426], [85.45455260897748, 28.447516152806738], [85.45456179353387, 28.446884514078736], [85.45415342065924, 28.44687987486639], [85.45424501513054, 28.447602907507125], [85.45362457438216, 28.448137350976292], [85.45495573730807, 28.447881727373733], [85.45504733779075, 28.44860475961733], [85.4566808570638, 28.448623299413853], [85.45728687793942, 28.44908141777778], [85.46004738043527, 28.44884194448639], [85.46013117131285, 28.45010638041763], [85.46065341777224, 28.449300048446393]], [[85.45914945414455, 28.447387792326527], [85.45976201786402, 28.447394728310865], [85.45975547942757, 28.447845899910668], [85.45914291311024, 28.44783896379654], [85.45914945414455, 28.447387792326527]], [[85.45872799276897, 28.44828550954161], [85.4592384667295, 28.448291291467275], [85.45923192582698, 28.448742462896295], [85.45872144970147, 28.448736680862442], [85.45872799276897, 28.44828550954161]], [[85.45802773036348, 28.44728483494783], [85.45884448081472, 28.447294089016175], [85.45883401305743, 28.448015963259326], [85.45832354051636, 28.44801017986757], [85.45802773036348, 28.44728483494783]]]}}, {"type": "Feature", "properties": {"clase": "deslizamiento_s1", "area_km2": 0.54, "lon": 85.47552, "lat": 28.47156, "delta_vv_db": -2.57, "delta_abs_med_db": 11.51, "sentido": "oscurece", "par": "2021-08-23 vs 2026-08-28", "orbita": 85, "fuente": "Sentinel-1 RTC VV (Planetary Computer)"}, "geometry": {"type": "Polygon", "coordinates": [[[85.48579168907837, 28.47665701443494], [85.48589896060058, 28.476297211546836], [85.48497856606147, 28.476377208532917], [85.48498500508863, 28.47592603350755], [85.48559902803571, 28.475842624405193], [85.48561447478107, 28.474759803895314], [85.48674295658982, 28.47441136993272], [85.48695491519213, 28.47387223211539], [85.48777188108949, 28.47388132031343], [85.48788556864963, 28.473070339538417], [85.48911486128199, 28.472813255600617], [85.48912256586368, 28.472271844246155], [85.4885175577992, 28.471723623746843], [85.48757920871729, 28.473066932383528], [85.48676353528195, 28.472967608144103], [85.4863640611204, 28.47233141599857], [85.48614566976943, 28.473321728487473], [85.48511674330865, 28.47385176573699], [85.481240037092, 28.473537772754256], [85.48114953511781, 28.472724518145792], [85.47951045741124, 28.473067197240834], [85.4783974880735, 28.472332753599623], [85.47737241788222, 28.472592026970805], [85.47709194644527, 28.470783901528392], [85.47780676752349, 28.4707919050173], [85.47791405890787, 28.470432108937555], [85.47576312700882, 28.470859262634118], [85.47629831593277, 28.469150525081044], [85.47701700832933, 28.468887828024954], [85.47754569756113, 28.4676302579529], [85.47836390484592, 28.467549166000552], [85.4783690766652, 28.467188226623115], [85.47765557319941, 28.467089992195557], [85.47797614024097, 28.46610083782979], [85.47726135067653, 28.466092836433795], [85.47726781972698, 28.46564166234389], [85.47643797600797, 28.466534861272123], [85.47725099988611, 28.466814714912566], [85.47693301207492, 28.467623397568406], [85.47591705023957, 28.467251018503255], [85.47572188887729, 28.466617086426055], [85.47510920975598, 28.46661021804979], [85.47511568808667, 28.46615904444684], [85.4762492859301, 28.46544975592111], [85.47399504155365, 28.4659659761405], [85.47366146886529, 28.467857466194786], [85.47449653084941, 28.466603346915512], [85.47500709658996, 28.46660907305227], [85.47560552759072, 28.467608523940065], [85.47447190195057, 28.468317805832925], [85.47424952098646, 28.469578799788017], [85.47352433164106, 28.47029265477101], [85.4729116319459, 28.470285775686765], [85.47333826139315, 28.46902707762087], [85.47303710545182, 28.468662699742183], [85.47230802018478, 28.469647251960787], [85.46954698985063, 28.469886953669086], [85.46924844666918, 28.469342098976828], [85.46843022123149, 28.469423135249436], [85.4679105298036, 28.470049024516165], [85.46882306914232, 28.470510547839638], [85.46881656290657, 28.470961719826764], [85.46789360352471, 28.471222071195616], [85.46657129237397, 28.470846170432683], [85.46655956365919, 28.471658279089663], [85.46543496609416, 28.471735841497836], [85.4654284451328, 28.472187012686845], [85.46257828787611, 28.471523075720494], [85.46144715262878, 28.47205177549022], [85.46144192224958, 28.472412711750582], [85.4678662589344, 28.473116992307613], [85.46785974792803, 28.473568163919527], [85.469081278959, 28.47385266940066], [85.46920291473761, 28.472500303401098], [85.47001596233326, 28.47278020109563], [85.4702254006858, 28.47242156123397], [85.46994505202942, 28.470613425689994], [85.47116785521594, 28.470807676964743], [85.4712647755102, 28.47116976298843], [85.4729025475755, 28.470917417688927], [85.47257153199321, 28.47262843333152], [85.47318424510658, 28.472635314464135], [85.47340794420815, 28.471284088945964], [85.4743231128622, 28.47156510737575], [85.47454549827734, 28.470304113781566], [85.47505608181928, 28.47030984041348], [85.47502497788612, 28.472475472040134], [85.47461261344333, 28.472741594327793], [85.47584192851052, 28.472484631488996], [85.47585229132082, 28.47176275408616], [85.47646500037764, 28.47176962024889], [85.47654769709663, 28.47312428485516], [85.47777701281424, 28.47286730452093], [85.47878786296606, 28.47360061082144], [85.48143524250025, 28.474171698031814], [85.48142104429687, 28.475164281667503], [85.48478977551261, 28.475292112555262], [85.48478204787054, 28.475833522583432], [85.48386294563828, 28.475823277170832], [85.48313519492471, 28.47671765349011], [85.48579168907837, 28.47665701443494]], [[85.46829816743858, 28.47149737586705], [85.46891087280144, 28.471504276000694], [85.46888875134267, 28.47303826046811], [85.46796837801662, 28.47311814290542], [85.46829816743858, 28.47149737586705]], [[85.46666037814235, 28.471749664908028], [85.46727308449043, 28.471756572475282], [85.4672652686829, 28.472297978363592], [85.46665255921344, 28.472291070641315], [85.46666037814235, 28.471749664908028]]]}}, {"type": "Feature", "properties": {"clase": "deslizamiento_s1", "area_km2": 0.53, "lon": 84.97668, "lat": 28.42416, "delta_vv_db": -12.45, "delta_abs_med_db": 12.03, "sentido": "oscurece", "par": "2021-08-23 vs 2026-08-28", "orbita": 85, "fuente": "Sentinel-1 RTC VV (Planetary Computer)"}, "geometry": {"type": "Polygon", "coordinates": [[[84.98339892784108, 28.428444626658273], [84.98361328900586, 28.42790638362522], [84.98189215475887, 28.42715897985815], [84.9826355800943, 28.425635980727584], [84.9808055932236, 28.42524789703084], [84.98052000850396, 28.424160821860642], [84.97837192073045, 28.42439964130764], [84.97838049356059, 28.423948586476588], [84.97646910369667, 28.42247640011277], [84.97647939992326, 28.421935134796144], [84.98403399673839, 28.421866764232234], [84.98354601135912, 28.420686459584626], [84.9829252077557, 28.421128444401962], [84.98129424413113, 28.421014028668512], [84.98120589744018, 28.420290825877355], [84.98079773202305, 28.42028477157915], [84.97679925369027, 28.421217998285996], [84.97609010887066, 28.420936746392275], [84.97589804047813, 28.4203022355436], [84.97508342944037, 28.420199883066278], [84.97479276245873, 28.419383431293205], [84.9737654893384, 28.419729088721464], [84.97295088554235, 28.419626723795147], [84.9728591587494, 28.41908393985268], [84.9723455217824, 28.419256762201208], [84.97150340233046, 28.420597759256324], [84.97198609140196, 28.422048732199297], [84.97137039599106, 28.422220029528724], [84.97051791152506, 28.424102281362646], [84.97100404152219, 28.425372836154303], [84.96966367295632, 28.426074736277787], [84.9694440799257, 28.426883585347106], [84.97077585451993, 28.426632740620764], [84.9710905994654, 28.426186252273645], [84.97190697079219, 28.426198420145468], [84.97188976844201, 28.427100525859117], [84.97302260515123, 28.426575985535788], [84.97637642485567, 28.42734778587105], [84.9797525757165, 28.426946762935884], [84.98014706016072, 28.427674509852523], [84.98339892784108, 28.428444626658273]], [[84.97466738131283, 28.425968818409327], [84.97509789372472, 28.424802152227567], [84.97703847179308, 28.42474077370836], [84.97794144549373, 28.425566319829617], [84.97792944006203, 28.42619779626251], [84.9757830245977, 28.426346361547928], [84.97466738131283, 28.425968818409327]], [[84.97521367721625, 28.42408198412284], [84.9756390243416, 28.423185947698908], [84.97736690854163, 28.4235725818256], [84.97735833154937, 28.424023636398687], [84.97521367721625, 28.42408198412284]], [[84.97308277498287, 28.423418612510886], [84.9733212376627, 28.4216174375862], [84.97210189158336, 28.42132856739293], [84.97294229124404, 28.420077777395534], [84.97386065735928, 28.420091450735665], [84.97618185328103, 28.421479528940466], [84.97523600067487, 28.42290924373308], [84.97472578325434, 28.422901652663302], [84.97471204244358, 28.423623338855474], [84.97308277498287, 28.423418612510886]], [[84.971839328401, 28.42439268772803], [84.97367957161134, 28.42423962548345], [84.97374724539483, 28.426045358614196], [84.97180664462648, 28.42610668885614], [84.971839328401, 28.42439268772803]]]}}, {"type": "Feature", "properties": {"clase": "deslizamiento_s1", "area_km2": 0.51, "lon": 85.10194, "lat": 28.40582, "delta_vv_db": -13.84, "delta_abs_med_db": 12.24, "sentido": "oscurece", "par": "2021-08-23 vs 2026-08-28", "orbita": 85, "fuente": "Sentinel-1 RTC VV (Planetary Computer)"}, "geometry": {"type": "Polygon", "coordinates": [[[85.10165259838774, 28.40875861815958], [85.10146139633912, 28.40803403006583], [85.10269227290327, 28.407690225869377], [85.1069697993303, 28.40820096500505], [85.10749121486342, 28.407576530080362], [85.10524319318766, 28.407725747153766], [85.10495153771245, 28.406909524839165], [85.10792181284408, 28.40631914761802], [85.10742446593783, 28.40559031210441], [85.10764136564502, 28.404871402687053], [85.10622091039778, 28.404400452953812], [85.10654145284177, 28.403592746224], [85.10542551192813, 28.403216263078047], [85.1053347179235, 28.40258331671667], [85.1031807966507, 28.403185014400744], [85.1022818020746, 28.40208960475868], [85.10033676939156, 28.402423447110124], [85.1002250789554, 28.402963330815293], [85.09961288682683, 28.40295478881254], [85.09960322454508, 28.40349609564757], [85.09858128847455, 28.40357207029573], [85.09826713316554, 28.40401888450161], [85.0988793309316, 28.404027432844362], [85.09855550715142, 28.405015554089932], [85.09977991461471, 28.40503264598172], [85.09977186274219, 28.40548373492032], [85.1010950924224, 28.405682674779072], [85.1010870459028, 28.406133764019426], [85.09975897936047, 28.406205477155556], [85.09925846901302, 28.405657050014895], [85.09793202026775, 28.40563852785325], [85.09697500245288, 28.407790920198416], [85.09562431745302, 28.409125637451073], [85.09480640144541, 28.40920443515021], [85.09520647969683, 28.40966123313377], [85.09643739215396, 28.409317487458946], [85.09663340137593, 28.409771428269423], [85.10165259838774, 28.40875861815958]], [[85.09911938119019, 28.407730633602068], [85.09964889145553, 28.406655142010678], [85.10219495715306, 28.406961372789816], [85.10218691486399, 28.407412462233655], [85.10147266008633, 28.407402505159233], [85.10115689483445, 28.407939543666778], [85.09911938119019, 28.407730633602068]]]}}]}