{"type": "FeatureCollection", "features": [{"type": "Feature", "properties": {"name": "eje Bhote Koshi–Trishuli", "km": 58.68}, "geometry": {"type": "LineString", "coordinates": [[28.27851, 85.37776], [28.27005205895589, 85.37747337900068], [28.26291803769988, 85.37281768102034], [28.257468483385193, 85.36548063274489], [28.248836987949222, 85.3642356811839], [28.24203535820658, 85.35819503980073], [28.233606770091843, 85.35997233240587], [28.224754068336857, 85.36116869302337], [28.217529062118473, 85.35565448639822], [28.208866481638797, 85.35425163858923], [28.200384166883946, 85.35259686771538], [28.192206145888377, 85.348914025745], [28.184449611733392, 85.34429805402493], [28.17592261796218, 85.34271380203414], [28.16702739895238, 85.3427153090828], [28.16054183001706, 85.3376568169983], [28.15545503094729, 85.3298281598157], [28.15001098026225, 85.3221568952841], [28.145446917738354, 85.31388729434588], [28.14123477035137, 85.30830424425407], [28.133968410487128, 85.30257886463366], [28.12659602952461, 85.29751530761999], [28.12076212857604, 85.29015235619848], [28.115331917338562, 85.28253790021989], [28.108986562849488, 85.2759355153893], [28.102960149681767, 85.26898004989393], [28.097198480964355, 85.26194088926839], [28.09357121842899, 85.25296082973767], [28.09243068073957, 85.24297522126331], [28.089966408361434, 85.23333851546244], [28.084407967303758, 85.22603768767279], [28.079407151367043, 85.21780251116925], [28.074515043430853, 85.20953754145673], [28.06722408214398, 85.20513481386541], [28.058844425600153, 85.20849493759997], [28.051279677105004, 85.20468079137925], [28.044134438313613, 85.19915592395536], [28.037269254561576, 85.19361866835783], [28.029095554448634, 85.1923295738322], [28.022567418006357, 85.18607959313107], [28.014598000685417, 85.18568342935475], [28.00613650117901, 85.1838720496463], [27.99768514529415, 85.18581296676469], [27.990232913122714, 85.18289519680884], [27.98253280293114, 85.18032651242], [27.973981303845846, 85.18305403302911], [27.968745389121914, 85.1784769081707], [27.963330774325634, 85.17133777459269], [27.956375369719883, 85.16582055382712], [27.94979759990786, 85.16250014960548], [27.94167544318591, 85.15967268219866], [27.933675166929046, 85.15540166363894], [27.93140099605887, 85.14987309067024], [27.92310485361694, 85.15131111640231], [27.919699943971615, 85.14246566626139], [27.915161583771788, 85.13428368720949], [27.90779146956489, 85.13901033295198], [27.90079131930572, 85.13771871509745], [27.89245588190736, 85.13631206028015], [27.88755, 85.13475]]}}, {"type": "Feature", "properties": {"id": "rasuwagadhi", "nombre": "Rasuwagadhi", "lat": 28.2777749, "lon": 85.3777789, "km": 0.0, "z": 1767.2, "snap_m": 82.0, "hora_llegada": "08:36", "min_desde_sismo": -0.4, "aviso_sms_min": -39.4, "aviso_auto_08_38_min": -1.4, "aviso_real_min": 0.0, "aviso_potencial_min": 0.0, "minutos_perdidos": 0.0, "V_local_mps": 23.04}, "geometry": {"type": "Point", "coordinates": [85.3777789, 28.2777749]}}, {"type": "Feature", "properties": {"id": "timure", "nombre": "Timure", "lat": 28.2528483, "lon": 85.3666715, "km": 4.0, "z": 1630.2, "snap_m": 506.0, "hora_llegada": "08:39", "min_desde_sismo": 2.7, "aviso_sms_min": -36.3, "aviso_auto_08_38_min": 1.7, "aviso_real_min": 0.0, "aviso_potencial_min": 1.7, "minutos_perdidos": 1.7, "V_local_mps": 17.47}, "geometry": {"type": "Point", "coordinates": [85.3666715, 28.2528483]}}, {"type": "Feature", "properties": {"id": "chilime", "nombre": "Chilime (poblado)", "lat": 28.1836181, "lon": 85.3022373, "km": 13.0, "z": 1408.2, "snap_m": 4059.0, "hora_llegada": "08:47", "min_desde_sismo": 11.0, "aviso_sms_min": -28.0, "aviso_auto_08_38_min": 10.0, "aviso_real_min": 0.0, "aviso_potencial_min": 10.0, "minutos_perdidos": 10.0, "V_local_mps": 17.09}, "geometry": {"type": "Point", "coordinates": [85.3022373, 28.1836181]}}, {"type": "Feature", "properties": {"id": "syabrubesi", "nombre": "Syabrubesi", "lat": 28.1628146, "lon": 85.3378412, "km": 15.0, "z": 1368.4, "snap_m": 253.0, "hora_llegada": "08:50", "min_desde_sismo": 13.0, "aviso_sms_min": -26.0, "aviso_auto_08_38_min": 12.0, "aviso_real_min": 0.0, "aviso_potencial_min": 12.0, "minutos_perdidos": 12.0, "V_local_mps": 18.8}, "geometry": {"type": "Point", "coordinates": [85.3378412, 28.1628146]}}, {"type": "Feature", "properties": {"id": "mailung", "nombre": "Mailung (confluencia)", "lat": 28.071507, "lon": 85.1978618, "km": 33.0, "z": 836.6, "snap_m": 858.0, "hora_llegada": "09:08", "min_desde_sismo": 31.2, "aviso_sms_min": -7.8, "aviso_auto_08_38_min": 30.2, "aviso_real_min": 0.0, "aviso_potencial_min": 30.2, "minutos_perdidos": 30.2, "V_local_mps": 21.24}, "geometry": {"type": "Point", "coordinates": [85.1978618, 28.071507]}}, {"type": "Feature", "properties": {"id": "betrawati", "nombre": "Betrawati", "lat": 27.9731085, "lon": 85.1859528, "km": 45.0, "z": 564.6, "snap_m": 301.0, "hora_llegada": "09:20", "min_desde_sismo": 43.0, "aviso_sms_min": 4.0, "aviso_auto_08_38_min": 42.0, "aviso_real_min": 4.0, "aviso_potencial_min": 42.0, "minutos_perdidos": 38.0, "V_local_mps": 13.24}, "geometry": {"type": "Point", "coordinates": [85.1859528, 27.9731085]}}, {"type": "Feature", "properties": {"id": "trishuli", "nombre": "Trishuli HEP / Bazar", "lat": 27.9227451, "lon": 85.1461726, "km": 54.0, "z": 473.3, "snap_m": 497.0, "hora_llegada": "09:32", "min_desde_sismo": 55.8, "aviso_sms_min": 16.8, "aviso_auto_08_38_min": 54.8, "aviso_real_min": 16.8, "aviso_potencial_min": 54.8, "minutos_perdidos": 38.0, "V_local_mps": 9.78}, "geometry": {"type": "Point", "coordinates": [85.1461726, 27.9227451]}}, {"type": "Feature", "properties": {"id": "bidur", "nombre": "Bidur", "lat": 27.89526, "lon": 85.146446, "km": 58.0, "z": 444.7, "snap_m": 1044.0, "hora_llegada": "09:39", "min_desde_sismo": 62.6, "aviso_sms_min": 23.6, "aviso_auto_08_38_min": 61.6, "aviso_real_min": 23.6, "aviso_potencial_min": 61.6, "minutos_perdidos": 38.0, "V_local_mps": 9.73}, "geometry": {"type": "Point", "coordinates": [85.146446, 27.89526]}}, {"type": "Feature", "properties": {"id": "devighat", "nombre": "Devighat HEP (Nuwakot)", "lat": 27.8881907, "lon": 85.1340051, "km": 58.68, "z": 440.0, "snap_m": 102.0, "hora_llegada": "09:40", "min_desde_sismo": 63.8, "aviso_sms_min": 24.8, "aviso_auto_08_38_min": 62.8, "aviso_real_min": 24.8, "aviso_potencial_min": 62.8, "minutos_perdidos": 38.0, "V_local_mps": 9.73}, "geometry": {"type": "Point", "coordinates": [85.1340051, 27.8881907]}}]}