{"type": "FeatureCollection", "features": [{"type": "Feature", "properties": {"clase": "lago_s1", "area_ha": 0.85, "lon": 85.51123, "lat": 28.29087, "dist_km_suhora": 0.37, "dist_km_keystone": 4.83, "umbral_db": -17.0, "caida_db": 3.5, "par": "16vs28"}, "geometry": {"type": "Polygon", "coordinates": [[[85.5106486470109, 28.29146560805575], [85.5107543628058, 28.291196004452825], [85.51146799174366, 28.291203785963905], [85.5112703764174, 28.29075037031916], [85.51208469412657, 28.290849498544212], [85.51198902298914, 28.29039719469386], [85.51148054725049, 28.290301400376975], [85.51116842985006, 28.290749258771655], [85.51055675056763, 28.290742587889405], [85.51034406190777, 28.29137203321234], [85.5106486470109, 28.29146560805575]], [[85.51096076876593, 28.291017751056323], [85.51075813132286, 28.290925288877496], [85.51096328074959, 28.290837273985662], [85.51096076876593, 28.291017751056323]]]}}, {"type": "Feature", "properties": {"clase": "lago_s1", "area_ha": 0.76, "lon": 85.51188, "lat": 28.28941, "dist_km_suhora": 0.54, "dist_km_keystone": 4.86, "umbral_db": -17.0, "caida_db": 3.5, "par": "16vs28"}, "geometry": {"type": "Polygon", "coordinates": [[[85.51160006893953, 28.28903917158628], [85.51129423409958, 28.28903583763806], [85.51158751510258, 28.289941557389128], [85.5131217194198, 28.289597262932325], [85.51230615514416, 28.289588379808833], [85.51150189028297, 28.28876734459366], [85.51160006893953, 28.28903917158628]], [[85.51160006893953, 28.28903917158628], [85.51170201389776, 28.28904028275024], [85.51170075862603, 28.289130521340294], [85.51159881358188, 28.289129410172155], [85.51160006893953, 28.28903917158628]], [[85.51179768287477, 28.289492586796865], [85.51159630284924, 28.289309887340195], [85.51180019328694, 28.28931210961711], [85.51179768287477, 28.289492586796865]], [[85.51179768287477, 28.289492586796865], [85.51189962827411, 28.289493697829595], [85.51200282871642, 28.289404570188662], [85.51189711801058, 28.289674175012717], [85.51179768287477, 28.289492586796865]], [[85.51199906358755, 28.289675285977737], [85.51210226413312, 28.28958615826741], [85.5121010091703, 28.2896763968667], [85.51199906358755, 28.289675285977737]]]}}, {"type": "Feature", "properties": {"clase": "lago_s1", "area_ha": 0.68, "lon": 85.51332, "lat": 28.28908, "dist_km_suhora": 0.62, "dist_km_keystone": 4.76, "umbral_db": -17.0, "caida_db": 3.5, "par": "16vs28"}, "geometry": {"type": "Polygon", "coordinates": [[[85.51424562720347, 28.28942899190197], [85.51455522221141, 28.289161603170598], [85.51404549623861, 28.289156057216825], [85.51415120103422, 28.28888645048551], [85.51353702413576, 28.289060270696574], [85.51354078527733, 28.288789554693697], [85.51313300609328, 28.288785115107352], [85.51333564179386, 28.28887757371316], [85.51312924392086, 28.289055831060207], [85.51211355853819, 28.288774010817853], [85.51231242901245, 28.289137186752015], [85.51363771556443, 28.28915161908484], [85.51424562720347, 28.28942899190197]]]}}, {"type": "Feature", "properties": {"clase": "lago_s2_scl", "area_ha": 3.72, "lon": 85.51058, "lat": 28.29313, "dist_km_suhora": 0.12, "dist_km_keystone": 4.77}, "geometry": {"type": "Polygon", "coordinates": [[[85.50969215066894, 28.294252989193925], [85.51152473723097, 28.29445348453716], [85.51194006976566, 28.293916498544696], [85.51073426316738, 28.29263982066546], [85.51114959207203, 28.29210283682421], [85.51074180070562, 28.292098389623053], [85.51054293065414, 28.291735211546353], [85.50931956137447, 28.29172186101599], [85.50992621825095, 28.292089491569744], [85.50970975142354, 28.292989650923786], [85.51010749130965, 28.293716009081123], [85.50969717957196, 28.293892035427348], [85.50969215066894, 28.294252989193925]], [[85.51132334875834, 28.29427078447062], [85.51112196097317, 28.294088084128223], [85.51132586047176, 28.294090307456138], [85.51132334875834, 28.29427078447062]], [[85.511328372162, 28.293909830436682], [85.51112698501788, 28.293727130117745], [85.51133088382906, 28.29372935341226], [85.511328372162, 28.293909830436682]]]}}, {"type": "Feature", "properties": {"clase": "lago_reportado", "nombre": "Suhora/Satellogic 27 ago 20.25 ha"}, "geometry": {"type": "Point", "coordinates": [85.510806, 28.294167]}}, {"type": "Feature", "properties": {"clase": "lago_reportado", "nombre": "Keystone inferido Chhochen/Purepu"}, "geometry": {"type": "Point", "coordinates": [85.55406, 28.31249]}}]}