{"type": "FeatureCollection", "features": [{"type": "Feature", "properties": {"clase": "origen_usgs", "nombre": "USGS M5.2 landslide 08:37 NPT", "fuente": "USGS / flanco N Langtang ~5600 m"}, "geometry": {"type": "Point", "coordinates": [85.515, 28.271]}}, {"type": "Feature", "properties": {"clase": "origen_s1", "nombre": "Cambio S1 VV 16 vs 28 ago (mas cercano a USGS, ≤3 km)", "area_ha": 3.8, "mean_db": -6.01, "dist_km_usgs": 1.27}, "geometry": {"type": "Point", "coordinates": [85.51644, 28.28232]}}, {"type": "Feature", "properties": {"clase": "origen_s2", "nombre": "Mayor perdida de hielo SCL 24 vs 27 ago", "area_ha": 20.2, "dist_km_usgs": 1.58}, "geometry": {"type": "Point", "coordinates": [85.51282, 28.28508]}}, {"type": "Feature", "properties": {"clase": "cicatriz_s2", "nombre": "Perdida de hielo SCL 24 vs 27 (parche mayor)", "area_ha": 20.2}, "geometry": {"type": "Polygon", "coordinates": [[[85.51080460541232, 28.287586462527738], [85.51264209876727, 28.287425984293836], [85.51305488882694, 28.287069470471813], [85.51305990487984, 28.286708515772723], [85.51265464239322, 28.2865235977254], [85.51307244460713, 28.285806128937953], [85.51429574835169, 28.285819443308466], [85.51469850612713, 28.28618483401416], [85.51573295060568, 28.28511305247698], [85.5157404604883, 28.284571619606808], [85.5165634933599, 28.2840390476728], [85.51637462506851, 28.282953966619942], [85.51597187296264, 28.282588580934693], [85.5153602389828, 28.282581933317452], [85.51537526072228, 28.28149906731426], [85.51453470688182, 28.28329497587274], [85.51350528327775, 28.284005793901883], [85.5132938807483, 28.28454500686572], [85.51247835490828, 28.284536126219063], [85.51187674973373, 28.2838075532442], [85.5112651099276, 28.28380088702855], [85.50920871239038, 28.285041986236113], [85.50919865491456, 28.285763894524216], [85.51000664966385, 28.286314226469266], [85.5095863112887, 28.287212162027725], [85.5104043689734, 28.287040583584773], [85.51080460541232, 28.287586462527738]]]}}]}